STARLINK-31284          
1 59246U 24049R   26068.20580556 -.00002109  00000+0 -67171-4 0  9997
2 59246  43.0033 146.1340 0000917 212.5513 147.5282 15.27573933112329
FLOCK 4G-24             
1 62637U 25009AE  26068.72509072  .00010513  00000+0  38996-3 0  9991
2 62637  97.4061 151.5140 0001802 280.2808  79.8228 15.27784978 63732
